STARLINK-5749           
1 55569U 23020A   23071.91667824 -.01232224  00000+0 -34291-1 0  9990
2 55569  42.9983 185.1273 0001465 277.5949 190.3793 15.39126222  1302
STARLINK-5737           
1 55570U 23020B   23071.91667824 -.01239866  00000+0 -34686-1 0  9999
2 55570  42.9984 185.1374 0001451 283.4582 181.2016 15.38986126  1304
STARLINK-5739           
1 55571U 23020C   23071.91667824 -.01241736  00000+0 -34216-1 0  9998
2 55571  42.9982 185.1139 0001405 282.5990 190.9236 15.39448467  1307
STARLINK-5732           
1 55572U 23020D   23071.91667824 -.01242282  00000+0 -34051-1 0  9993
2 55572  42.9988 185.1048 0001344 281.2969 196.9014 15.39609156  1301
STARLINK-5738           
1 55573U 23020E   23071.91667824 -.01242388  00000+0 -34182-1 0  9996
2 55573  42.9983 185.1092 0001380 279.8636 195.5634 15.39496055  1305
STARLINK-5747           
1 55574U 23020F   23071.91667824 -.01244326  00000+0 -32771-1 0  9993
2 55574  42.9986 185.0594 0001346 278.7557 218.0440 15.40812366  1302
STARLINK-5745           
1 55575U 23020G   23071.91667824 -.01244797  00000+0 -33192-1 0  9994
2 55575  42.9984 185.0742 0001334 276.6498 213.2704 15.40443255  1301
STARLINK-5751           
1 55576U 23020H   23071.36259822  .00003115  00000+0  27189-4 0  9995
2 55576  43.0035 186.3319 0002786 268.4848  91.5701 15.71361511  4445
STARLINK-5752           
1 55577U 23020J   23071.91667824 -.00774713  00000+0 -14865-1 0  9997
2 55577  42.9978 184.5234 0001539 273.0438  82.4373 15.49584837  1307
STARLINK-5713           
1 55578U 23020K   23071.91667824 -.01245400  00000+0 -32484-1 0  9992
2 55578  42.9985 185.0443 0001323 274.8494 227.7663 15.41103334  1303
STARLINK-5754           
1 55579U 23020L   23071.91667824 -.01247576  00000+0 -32154-1 0  9993
2 55579  42.9983 185.0214 0001289 275.4562 236.1491 15.41464824  1309
STARLINK-5757           
1 55580U 23020M   23071.36209663  .00011853  00000+0  93673-4 0  9997
2 55580  43.0015 186.3292 0002115 294.1563  65.9083 15.71364262  4448
STARLINK-5753           
1 55581U 23020N   23071.91667824 -.01245491  00000+0 -32532-1 0  9990
2 55581  42.9984 185.0478 0001330 278.6992 222.1769 15.41061669  1307
STARLINK-5741           
1 55582U 23020P   23071.36462264  .00011007  00000+0  87200-4 0  9997
2 55582  43.0009 186.3628 0001695 275.2923  84.7751 15.71374776  4440
STARLINK-5742           
1 55583U 23020Q   23071.91667824 -.01240965  00000+0 -32162-1 0  9992
2 55583  42.9981 185.0359 0001310 279.2594 226.6214 15.41283042  1302
STARLINK-5736           
1 55584U 23020R   23071.91667824 -.01247797  00000+0 -32265-1 0  9997
2 55584  42.9985 185.0318 0001277 280.8095 227.2147 15.41368245  1309
STARLINK-5769           
1 55585U 23020S   23071.68293880  .00003756  00000+0  32064-4 0  9991
2 55585  43.0012 184.4455 0001955 263.0891  96.9754 15.71364920  4495
STARLINK-5767           
1 55586U 23020T   23071.91667824 -.01247134  00000+0 -32063-1 0  9990
2 55586  42.9984 185.0185 0001329 282.2102 231.4340 15.41537144  1303
STARLINK-5727           
1 55587U 23020U   23071.91667824 -.00647824  00000+0 -12452-1 0  9990
2 55587  42.9980 184.5120 0001643 273.8085  86.8212 15.49496391  1315
STARLINK-5728           
1 55588U 23020V   23071.91667824 -.01248518  00000+0 -31683-1 0  9996
2 55588  42.9986 184.9999 0001278 271.0267 250.4034 15.41927622  1304
STARLINK-5697           
1 55589U 23020W   23071.91667824 -.01245521  00000+0 -31937-1 0  9990
2 55589  42.9981 185.0122 0001335 277.0588 238.6503 15.41611690  1300
STARLINK-5762           
1 55590U 23020X   23071.91667824 -.01250729  00000+0 -31510-1 0  9995
2 55590  42.9991 184.9877 0001498 273.0941 253.0245 15.42145830  1300
STARLINK-5760           
1 55591U 23020Y   23071.91667824 -.01247376  00000+0 -31721-1 0  9994
2 55591  42.9984 185.0028 0001320 280.0452 239.4635 15.41861862  1302
STARLINK-5759           
1 55592U 23020Z   23071.91667824 -.01250562  00000+0 -31479-1 0  9996
2 55592  42.9989 184.9819 0001267 270.2485 258.6777 15.42172405  1300
STARLINK-5703           
1 55593U 23020AA  23071.91667824 -.01248895  00000+0 -31661-1 0  9996
2 55593  42.9983 184.9947 0001273 272.3594 250.6449 15.41958116  1306
STARLINK-5750           
1 55594U 23020AB  23071.91667824 -.01251708  00000+0 -31251-1 0  9999
2 55594  42.9989 184.9732 0001355 279.0477 253.4341 15.42416471  1306
STARLINK-5740           
1 55595U 23020AC  23071.91667824 -.01252223  00000+0 -30126-1 0  9993
2 55595  42.9984 184.9558 0001312 273.7029 265.4158 15.43508902  1306
STARLINK-5729           
1 55596U 23020AD  23071.91667824 -.01252276  00000+0 -31218-1 0  9995
2 55596  42.9988 184.9692 0001356 276.0973 258.0790 15.42462415  1309
STARLINK-5743           
1 55597U 23020AE  23071.68283672  .00052936  00000+0  40404-3 0  9992
2 55597  43.0018 184.4453 0001642 271.0400  89.0280 15.71385744  4494
STARLINK-5756           
1 55598U 23020AF  23071.34085425  .00007977  00000+0  64211-4 0  9990
2 55598  42.9982 186.1598 0001511 284.4643  75.6057 15.71357885  4447
STARLINK-5761           
1 55599U 23020AG  23071.46393117  .00038871  00000+0  29819-3 0  9995
2 55599  43.0010 185.3566 0001599 266.9073  93.1612 15.71378916  4468
STARLINK-5755           
1 55600U 23020AH  23071.37309160  .00013904  00000+0  10924-3 0  9990
2 55600  43.0003 186.4167 0002702 276.0147  84.0413 15.71366551  4441
STARLINK-5744           
1 55601U 23020AJ  23071.91667824 -.01252853  00000+0 -30164-1 0  9992
2 55601  42.9988 184.9444 0001303 273.9423 270.1216 15.43488267  1301
STARLINK-5764           
1 55602U 23020AK  23071.71483400  .00015200  00000+0  11900-3 0  9996
2 55602  42.9975 183.7964 0000610 219.0079 141.0744 15.71384140  4503
STARLINK-5735           
1 55603U 23020AL  23071.69111447  .00001305  00000+0  13394-4 0  9994
2 55603  42.9995 184.5006 0001498 253.1593 106.9110 15.71355713  4496
STARLINK-5748           
1 55604U 23020AM  23071.36705490  .00005800  00000+0  47637-4 0  9997
2 55604  43.0018 186.3734 0004543 291.8748  68.1636 15.71359224  4446
STARLINK-5725           
1 55605U 23020AN  23071.37299053 -.00001263  00000+0 -61892-5 0  9993
2 55605  42.9979 186.4155 0001297 280.9624  79.1098 15.71361167  4447
STARLINK-5700           
1 55607U 23020AQ  23071.69047985  .00009180  00000+0  73283-4 0  9995
2 55607  42.9974 184.4992 0001169 306.9235  53.1526 15.71384444  4492
STARLINK-5726           
1 55608U 23020AR  23071.37247967  .00001031  00000+0  11318-4 0  9991
2 55608  42.9978 186.4121 0001762 271.1475  88.9191 15.71339963  4446
STARLINK-5719           
1 55609U 23020AS  23071.37288296  .00000530  00000+0  74888-5 0  9997
2 55609  42.9989 186.4130 0002189 255.5927 104.4698 15.71357510  4445
STARLINK-5722           
1 55610U 23020AT  23071.68985689 -.00002473  00000+0 -15425-4 0  9994
2 55610  42.9973 184.4912 0001657 256.3477 103.7207 15.71349201  4495
STARLINK-5730           
1 55611U 23020AU  23071.68995510  .00011211  00000+0  88774-4 0  9994
2 55611  42.9998 184.4911 0001948 250.4372 109.6285 15.71369202  4498
STARLINK-5734           
1 55612U 23020AV  23071.37193473  .00018723  00000+0  14579-3 0  9995
2 55612  42.9994 186.4065 0002325 265.8753  94.1849 15.71372295  4445
STARLINK-5715           
1 55613U 23020AW  23071.56304096  .00001643  00000+0  15967-4 0  9998
2 55613  42.9990 185.2590 0001775 285.4098  74.6573 15.71364298  4474
STARLINK-5714           
1 55614U 23020AX  23071.91667824  .00154833  00000+0  94822-3 0  9995
2 55614  42.9987 182.5629 0000308   8.9389  61.8366 15.76084927  1306
STARLINK-5712           
1 55615U 23020AY  23071.68963253  .00000392  00000+0  64441-5 0  9991
2 55615  42.9999 184.4885 0002601 278.6021  81.4552 15.71370928  4494
STARLINK-5710           
1 55616U 23020AZ  23071.68920628  .00008801  00000+0  70435-4 0  9993
2 55616  42.9991 184.4873 0005555 243.3072 116.7227 15.71364370  4495
STARLINK-5721           
1 55617U 23020BA  23071.68939550  .00035930  00000+0  27521-3 0  9998
2 55617  43.0009 184.4875 0007475 240.5813 119.4309 15.71412836  4497
STARLINK-5717           
1 55618U 23020BB  23071.30774245  .00012157  00000+0  95963-4 0  9998
2 55618  43.0009 186.7847 0003181 270.1800  89.8703 15.71366355  4433
STARLINK-5720           
1 55619U 23020BC  23071.37119984  .00011552  00000+0  91371-4 0  9996
2 55619  42.9991 186.4026 0002623 275.5263  84.5306 15.71366894  4440
STARLINK-5718           
1 55620U 23020BD  23071.30753457  .00020278  00000+0  15758-3 0  9999
2 55620  42.9979 186.7849 0001838 247.8609 112.2064 15.71373363  4435
STARLINK-5709           
1 55621U 23020BE  23071.68931434  .00002417  00000+0  21877-4 0  9999
2 55621  42.9999 184.4873 0003853 257.6333 102.4104 15.71366039  4496
STARLINK-5702           
1 55622U 23020BF  23071.68879908  .00009290  00000+0  74171-4 0  9998
2 55622  42.9968 184.4807 0001660 238.1689 121.9017 15.71366972  4497
STARLINK-5698           
1 55623U 23020BG  23071.68869523  .00002112  00000+0  19551-4 0  9998
2 55623  43.0005 184.4821 0002268 271.2111  88.8497 15.71357569  4496
FALCON 9 DEB            
1 55624U 23020BH  23071.68719771  .01847535  33238-2  12298-2 0  9996
2 55624  43.0047 179.0679 0004484 122.1577 237.9743 16.16876722  4551
FALCON 9 DEB            
1 55625U 23020BJ  23071.66759577  .02288694  88941-5  11368-2 0  9990
2 55625  42.9947 178.8915 0003491 115.8269 244.2977 16.19922968  4550
FALCON 9 DEB            
1 55626U 23020BK  23071.64084998  .02755217  89682-5  10548-2 0  9999
2 55626  42.9964 178.6611 0004101  94.4607 265.6749 16.23157870  4559
FALCON 9 DEB            
1 55627U 23020BL  23071.46551593  .01926880  41654-2  10794-2 0  9992
2 55627  42.9891 179.9346 0004838  93.8649 266.2790 16.19398860  4525
STARLINK-5484           
1 55628U 23021A   23070.51852554  .00010731  00000+0  90914-4 0  9999
2 55628  69.9998  88.8053 0002543 303.4496  56.6456 15.69922363  4263
